IONOSFERA-M 4           
1 64877U 25155B   26159.83402253  .00000059  00000+0  46699-4 0  9991
2 64877  98.6020 121.8670 0000754 117.1624 242.9630 14.21487274 45210
MICROCARB               
1 64899U 25156A   26159.79055410  .00000502  00000+0  87219-4 0  9996
2 64899  97.9831 237.0777 0015144 301.5299  58.4429 14.72317182 46730
CO3D 3                  
1 64900U 25156B   26159.76231488  .00005284  00000+0  24711-3 0  9996
2 64900  97.4327 238.5767 0001186 137.7947 222.3380 15.20193865 48254
CO3D 4                  
1 64901U 25156C   26159.76246934  .00000343  00000+0  18977-4 0  9998
2 64901  97.4334 238.5768 0000755  30.7581 329.3698 15.20198867 48258
CO3D 2                  
1 64902U 25156D   26159.79494823  .00004157  00000+0  19502-3 0  9995
2 64902  97.4325 238.5076 0001407 115.2802 244.8579 15.20208539 48258
CO3D 1                  
1 64903U 25156E   26159.79509539  .00004297  00000+0  20154-3 0  9997
2 64903  97.4327 238.5079 0001160 112.6552 247.4805 15.20195909 48250
PRSC-S1                 
1 65055U 25164A   26159.84401611  .00004714  00000+0  32606-3 0  9992
2 65055  41.1316 334.7985 0007563 294.7597  65.2430 15.06380985 47176
SENTINEL-6B             
1 66514U 25264A   26159.73170674 -.00000028  00000+0  14330-3 0  9993
2 66514  66.0385 152.7406 0008035 269.2428  90.7667 12.80929810 26087
CAS500-3                
1 66655U 25274F   26159.81128279  .00001287  00000+0  14496-3 0  9993
2 66655  97.7447  88.0530 0006315 132.1923 227.9831 14.88301383 28908
CSG-3                   
1 67304U 26001A   26159.76019988  .00000380  00000+0  54258-4 0  9998
2 67304  97.8886 343.4842 0001308  91.5784 268.5579 14.82148211 23214
PRSC-E03                
1 68835U 26092A   26159.83741861  .00002551  00000+0  17601-3 0  9990
2 68835  37.9996 138.9161 0005044 306.2173  53.8122 15.06629109  6690
CAS500-2                
1 69013U 26100AK  26159.72875544  .00007272  00000+0  33535-3 0  9992
2 69013  97.4083  57.7295 0011331  60.7707 299.4660 15.20490947  5522
