OBJECT_NAME,OBJECT_ID,EPOCH,MEAN_MOTION,ECCENTRICITY,INCLINATION,RA_OF_ASC_NODE,ARG_OF_PERICENTER,MEAN_ANOMALY,EPHEMERIS_TYPE,CLASSIFICATION_TYPE,NORAD_CAT_ID,ELEMENT_SET_NO,REV_AT_EPOCH,BSTAR,MEAN_MOTION_DOT,MEAN_MOTION_DDOT
IONOSFERA-M 4,2025-155B,2026-06-08T20:00:59.546592,14.21487274,.0000754,98.6020,121.8670,117.1624,242.9630,0,U,64877,999,4521,.46699E-4,.59E-6,0
MICROCARB,2025-156A,2026-06-08T18:58:23.874240,14.72317182,.0015144,97.9831,237.0777,301.5299,58.4429,0,U,64899,999,4673,.87219E-4,.502E-5,0
CO3D 3,2025-156B,2026-06-08T18:17:44.005632,15.20193865,.0001186,97.4327,238.5767,137.7947,222.3380,0,U,64900,999,4825,.24711E-3,.5284E-4,0
CO3D 4,2025-156C,2026-06-08T18:17:57.350976,15.20198867,.0000755,97.4334,238.5768,30.7581,329.3698,0,U,64901,999,4825,.18977E-4,.343E-5,0
CO3D 2,2025-156D,2026-06-08T19:04:43.527072,15.20208539,.0001407,97.4325,238.5076,115.2802,244.8579,0,U,64902,999,4825,.19502E-3,.4157E-4,0
CO3D 1,2025-156E,2026-06-08T19:04:56.241696,15.20195909,.000116,97.4327,238.5079,112.6552,247.4805,0,U,64903,999,4825,.20154E-3,.4297E-4,0
PRSC-S1,2025-164A,2026-06-08T20:15:22.991904,15.06380985,.0007563,41.1316,334.7985,294.7597,65.2430,0,U,65055,999,4717,.32606E-3,.4714E-4,0
SENTINEL-6B,2025-264A,2026-06-08T17:33:39.462336,12.80929810,.0008035,66.0385,152.7406,269.2428,90.7667,0,U,66514,999,2608,.1433E-3,-.28E-6,0
CAS500-3,2025-274F,2026-06-08T19:28:14.833056,14.88301383,.0006315,97.7447,88.0530,132.1923,227.9831,0,U,66655,999,2890,.14496E-3,.1287E-4,0
CSG-3,2026-001A,2026-06-08T18:14:41.269632,14.82148211,.0001308,97.8886,343.4842,91.5784,268.5579,0,U,67304,999,2321,.54258E-4,.38E-5,0
PRSC-E03,2026-092A,2026-06-08T20:05:52.967904,15.06629109,.0005044,37.9996,138.9161,306.2173,53.8122,0,U,68835,999,669,.17601E-3,.2551E-4,0
CAS500-2,2026-100AK,2026-06-08T17:29:24.470016,15.20490947,.0011331,97.4083,57.7295,60.7707,299.4660,0,U,69013,999,552,.33535E-3,.7272E-4,0
